[
  {
    "pincode": "500001",
    "state": "Telangana",
    "district": "Hyderabad",
    "taluka": "Hyderabad"
  },
  {
    "pincode": "500002",
    "state": "Telangana",
    "district": "Hyderabad",
    "taluka": "Hyderabad"
  },
  {
    "pincode": "500003",
    "state": "Telangana",
    "district": "Hyderabad",
    "taluka": "Hyderabad"
  },
  {
    "pincode": "500004",
    "state": "Telangana",
    "district": "Hyderabad",
    "taluka": "Hyderabad"
  },
  {
    "pincode": "500005",
    "state": "Telangana",
    "district": "Hyderabad",
    "taluka": "Hyderabad"
  },
  {
    "pincode": "500006",
    "state": "Telangana",
    "district": "Hyderabad",
    "taluka": "Hyderabad"
  },
  {
    "pincode": "500007",
    "state": "Telangana",
    "district": "Hyderabad",
    "taluka": "Hyderabad"
  },
  {
    "pincode": "500008",
    "state": "Telangana",
    "district": "Hyderabad",
    "taluka": "Hyderabad"
  },
  {
    "pincode": "500009",
    "state": "Telangana",
    "district": "Hyderabad",
    "taluka": "Hyderabad"
  },
  {
    "pincode": "500010",
    "state": "Telangana",
    "district": "Hyderabad",
    "taluka": "Hyderabad"
  },
  {
    "pincode": "500011",
    "state": "Telangana",
    "district": "Hyderabad",
    "taluka": "Hyderabad"
  },
  {
    "pincode": "500012",
    "state": "Telangana",
    "district": "Hyderabad",
    "taluka": "Hyderabad"
  },
  {
    "pincode": "500013",
    "state": "Telangana",
    "district": "Hyderabad",
    "taluka": "Hyderabad"
  },
  {
    "pincode": "500014",
    "state": "Telangana",
    "district": "Hyderabad",
    "taluka": "Hyderabad"
  },
  {
    "pincode": "500015",
    "state": "Telangana",
    "district": "Hyderabad",
    "taluka": "Hyderabad"
  },
  {
    "pincode": "500016",
    "state": "Telangana",
    "district": "Hyderabad",
    "taluka": "Hyderabad"
  },
  {
    "pincode": "500017",
    "state": "Telangana",
    "district": "Hyderabad",
    "taluka": "Hyderabad"
  },
  {
    "pincode": "500018",
    "state": "Telangana",
    "district": "Hyderabad",
    "taluka": "Hyderabad"
  },
  {
    "pincode": "500019",
    "state": "Telangana",
    "district": "Hyderabad",
    "taluka": "Hyderabad"
  },
  {
    "pincode": "500020",
    "state": "Telangana",
    "district": "Hyderabad",
    "taluka": "Hyderabad"
  },
  {
    "pincode": "500021",
    "state": "Telangana",
    "district": "Hyderabad",
    "taluka": "Hyderabad"
  },
  {
    "pincode": "500022",
    "state": "Telangana",
    "district": "Hyderabad",
    "taluka": "Hyderabad"
  },
  {
    "pincode": "500023",
    "state": "Telangana",
    "district": "Hyderabad",
    "taluka": "Hyderabad"
  },
  {
    "pincode": "500024",
    "state": "Telangana",
    "district": "Hyderabad",
    "taluka": "Hyderabad"
  },
  {
    "pincode": "500025",
    "state": "Telangana",
    "district": "Hyderabad",
    "taluka": "Hyderabad"
  },
  {
    "pincode": "500026",
    "state": "Telangana",
    "district": "Hyderabad",
    "taluka": "Hyderabad"
  },
  {
    "pincode": "500027",
    "state": "Telangana",
    "district": "Hyderabad",
    "taluka": "Hyderabad"
  },
  {
    "pincode": "500028",
    "state": "Telangana",
    "district": "Hyderabad",
    "taluka": "Hyderabad"
  },
  {
    "pincode": "500029",
    "state": "Telangana",
    "district": "Hyderabad",
    "taluka": "Hyderabad"
  },
  {
    "pincode": "500030",
    "state": "Telangana",
    "district": "Hyderabad",
    "taluka": "Hyderabad"
  },
  {
    "pincode": "500031",
    "state": "Telangana",
    "district": "Hyderabad",
    "taluka": "Hyderabad"
  },
  {
    "pincode": "500032",
    "state": "Telangana",
    "district": "Hyderabad",
    "taluka": "Hyderabad"
  },
  {
    "pincode": "500033",
    "state": "Telangana",
    "district": "Hyderabad",
    "taluka": "Hyderabad"
  },
  {
    "pincode": "500034",
    "state": "Telangana",
    "district": "Hyderabad",
    "taluka": "Hyderabad"
  },
  {
    "pincode": "500035",
    "state": "Telangana",
    "district": "Hyderabad",
    "taluka": "Hyderabad"
  },
  {
    "pincode": "500036",
    "state": "Telangana",
    "district": "Hyderabad",
    "taluka": "Hyderabad"
  },
  {
    "pincode": "500037",
    "state": "Telangana",
    "district": "Hyderabad",
    "taluka": "Hyderabad"
  },
  {
    "pincode": "500038",
    "state": "Telangana",
    "district": "Hyderabad",
    "taluka": "Hyderabad"
  },
  {
    "pincode": "500039",
    "state": "Telangana",
    "district": "Hyderabad",
    "taluka": "Hyderabad"
  },
  {
    "pincode": "500040",
    "state": "Telangana",
    "district": "Hyderabad",
    "taluka": "Hyderabad"
  },
  {
    "pincode": "500041",
    "state": "Telangana",
    "district": "Hyderabad",
    "taluka": "Hyderabad"
  },
  {
    "pincode": "500042",
    "state": "Telangana",
    "district": "Hyderabad",
    "taluka": "Hyderabad"
  },
  {
    "pincode": "500043",
    "state": "Telangana",
    "district": "Hyderabad",
    "taluka": "Hyderabad"
  },
  {
    "pincode": "500044",
    "state": "Telangana",
    "district": "Hyderabad",
    "taluka": "Hyderabad"
  },
  {
    "pincode": "500045",
    "state": "Telangana",
    "district": "Hyderabad",
    "taluka": "Hyderabad"
  },
  {
    "pincode": "500046",
    "state": "Telangana",
    "district": "Hyderabad",
    "taluka": "Hyderabad"
  },
  {
    "pincode": "500047",
    "state": "Telangana",
    "district": "Hyderabad",
    "taluka": "Hyderabad"
  },
  {
    "pincode": "500048",
    "state": "Telangana",
    "district": "Hyderabad",
    "taluka": "Hyderabad"
  },
  {
    "pincode": "500049",
    "state": "Telangana",
    "district": "Hyderabad",
    "taluka": "Hyderabad"
  },
  {
    "pincode": "500050",
    "state": "Telangana",
    "district": "Hyderabad",
    "taluka": "Hyderabad"
  },
  {
    "pincode": "500051",
    "state": "Telangana",
    "district": "Hyderabad",
    "taluka": "Hyderabad"
  },
  {
    "pincode": "500052",
    "state": "Telangana",
    "district": "Hyderabad",
    "taluka": "Hyderabad"
  },
  {
    "pincode": "500053",
    "state": "Telangana",
    "district": "Hyderabad",
    "taluka": "Hyderabad"
  },
  {
    "pincode": "500054",
    "state": "Telangana",
    "district": "Hyderabad",
    "taluka": "Hyderabad"
  },
  {
    "pincode": "500055",
    "state": "Telangana",
    "district": "Hyderabad",
    "taluka": "Hyderabad"
  },
  {
    "pincode": "500056",
    "state": "Telangana",
    "district": "Hyderabad",
    "taluka": "Hyderabad"
  },
  {
    "pincode": "500057",
    "state": "Telangana",
    "district": "Hyderabad",
    "taluka": "Hyderabad"
  },
  {
    "pincode": "500058",
    "state": "Telangana",
    "district": "Hyderabad",
    "taluka": "Hyderabad"
  },
  {
    "pincode": "500059",
    "state": "Telangana",
    "district": "Hyderabad",
    "taluka": "Hyderabad"
  },
  {
    "pincode": "500060",
    "state": "Telangana",
    "district": "Hyderabad",
    "taluka": "Hyderabad"
  },
  {
    "pincode": "500061",
    "state": "Telangana",
    "district": "Hyderabad",
    "taluka": "Hyderabad"
  },
  {
    "pincode": "500062",
    "state": "Telangana",
    "district": "Hyderabad",
    "taluka": "Hyderabad"
  },
  {
    "pincode": "500063",
    "state": "Telangana",
    "district": "Hyderabad",
    "taluka": "Hyderabad"
  },
  {
    "pincode": "500064",
    "state": "Telangana",
    "district": "Hyderabad",
    "taluka": "Hyderabad"
  },
  {
    "pincode": "500065",
    "state": "Telangana",
    "district": "Hyderabad",
    "taluka": "Hyderabad"
  },
  {
    "pincode": "500066",
    "state": "Telangana",
    "district": "Hyderabad",
    "taluka": "Hyderabad"
  },
  {
    "pincode": "500067",
    "state": "Telangana",
    "district": "Hyderabad",
    "taluka": "Hyderabad"
  },
  {
    "pincode": "500068",
    "state": "Telangana",
    "district": "Hyderabad",
    "taluka": "Hyderabad"
  },
  {
    "pincode": "500069",
    "state": "Telangana",
    "district": "Hyderabad",
    "taluka": "Hyderabad"
  },
  {
    "pincode": "500070",
    "state": "Telangana",
    "district": "Hyderabad",
    "taluka": "Hyderabad"
  },
  {
    "pincode": "500071",
    "state": "Telangana",
    "district": "Hyderabad",
    "taluka": "Hyderabad"
  },
  {
    "pincode": "500072",
    "state": "Telangana",
    "district": "Hyderabad",
    "taluka": "Hyderabad"
  },
  {
    "pincode": "500073",
    "state": "Telangana",
    "district": "Hyderabad",
    "taluka": "Hyderabad"
  },
  {
    "pincode": "500074",
    "state": "Telangana",
    "district": "Hyderabad",
    "taluka": "Hyderabad"
  },
  {
    "pincode": "500075",
    "state": "Telangana",
    "district": "Hyderabad",
    "taluka": "Hyderabad"
  },
  {
    "pincode": "500076",
    "state": "Telangana",
    "district": "Hyderabad",
    "taluka": "Hyderabad"
  },
  {
    "pincode": "500077",
    "state": "Telangana",
    "district": "Hyderabad",
    "taluka": "Hyderabad"
  },
  {
    "pincode": "500078",
    "state": "Telangana",
    "district": "Hyderabad",
    "taluka": "Hyderabad"
  },
  {
    "pincode": "500079",
    "state": "Telangana",
    "district": "Hyderabad",
    "taluka": "Hyderabad"
  },
  {
    "pincode": "500080",
    "state": "Telangana",
    "district": "Hyderabad",
    "taluka": "Hyderabad"
  },
  {
    "pincode": "500081",
    "state": "Telangana",
    "district": "Hyderabad",
    "taluka": "Hyderabad"
  },
  {
    "pincode": "500082",
    "state": "Telangana",
    "district": "Hyderabad",
    "taluka": "Hyderabad"
  },
  {
    "pincode": "500083",
    "state": "Telangana",
    "district": "Hyderabad",
    "taluka": "Hyderabad"
  },
  {
    "pincode": "500084",
    "state": "Telangana",
    "district": "Hyderabad",
    "taluka": "Hyderabad"
  },
  {
    "pincode": "500085",
    "state": "Telangana",
    "district": "Hyderabad",
    "taluka": "Hyderabad"
  },
  {
    "pincode": "500086",
    "state": "Telangana",
    "district": "Hyderabad",
    "taluka": "Hyderabad"
  },
  {
    "pincode": "500087",
    "state": "Telangana",
    "district": "Hyderabad",
    "taluka": "Hyderabad"
  },
  {
    "pincode": "500088",
    "state": "Telangana",
    "district": "Hyderabad",
    "taluka": "Hyderabad"
  },
  {
    "pincode": "500089",
    "state": "Telangana",
    "district": "Hyderabad",
    "taluka": "Hyderabad"
  },
  {
    "pincode": "500090",
    "state": "Telangana",
    "district": "Hyderabad",
    "taluka": "Hyderabad"
  },
  {
    "pincode": "500091",
    "state": "Telangana",
    "district": "Hyderabad",
    "taluka": "Hyderabad"
  },
  {
    "pincode": "500092",
    "state": "Telangana",
    "district": "Hyderabad",
    "taluka": "Hyderabad"
  },
  {
    "pincode": "500093",
    "state": "Telangana",
    "district": "Hyderabad",
    "taluka": "Hyderabad"
  },
  {
    "pincode": "500094",
    "state": "Telangana",
    "district": "Hyderabad",
    "taluka": "Hyderabad"
  },
  {
    "pincode": "500095",
    "state": "Telangana",
    "district": "Hyderabad",
    "taluka": "Hyderabad"
  },
  {
    "pincode": "500096",
    "state": "Telangana",
    "district": "Hyderabad",
    "taluka": "Hyderabad"
  },
  {
    "pincode": "500097",
    "state": "Telangana",
    "district": "Hyderabad",
    "taluka": "Hyderabad"
  },
  {
    "pincode": "500098",
    "state": "Telangana",
    "district": "Hyderabad",
    "taluka": "Hyderabad"
  },
  {
    "pincode": "500099",
    "state": "Telangana",
    "district": "Hyderabad",
    "taluka": "Hyderabad"
  },
  {
    "pincode": "500100",
    "state": "Telangana",
    "district": "Hyderabad",
    "taluka": "Hyderabad"
  },
  {
    "pincode": "520001",
    "state": "Andhra Pradesh",
    "district": "Guntur",
    "taluka": "Guntur"
  },
  {
    "pincode": "520002",
    "state": "Andhra Pradesh",
    "district": "Guntur",
    "taluka": "Guntur"
  },
  {
    "pincode": "520003",
    "state": "Andhra Pradesh",
    "district": "Guntur",
    "taluka": "Guntur"
  },
  {
    "pincode": "520004",
    "state": "Andhra Pradesh",
    "district": "Guntur",
    "taluka": "Guntur"
  },
  {
    "pincode": "520005",
    "state": "Andhra Pradesh",
    "district": "Guntur",
    "taluka": "Guntur"
  },
  {
    "pincode": "520006",
    "state": "Andhra Pradesh",
    "district": "Guntur",
    "taluka": "Guntur"
  },
  {
    "pincode": "520007",
    "state": "Andhra Pradesh",
    "district": "Guntur",
    "taluka": "Guntur"
  },
  {
    "pincode": "520008",
    "state": "Andhra Pradesh",
    "district": "Guntur",
    "taluka": "Guntur"
  },
  {
    "pincode": "520009",
    "state": "Andhra Pradesh",
    "district": "Guntur",
    "taluka": "Guntur"
  },
  {
    "pincode": "520010",
    "state": "Andhra Pradesh",
    "district": "Guntur",
    "taluka": "Guntur"
  },
  {
    "pincode": "530001",
    "state": "Andhra Pradesh",
    "district": "Visakhapatnam",
    "taluka": "Visakhapatnam"
  },
  {
    "pincode": "530002",
    "state": "Andhra Pradesh",
    "district": "Visakhapatnam",
    "taluka": "Visakhapatnam"
  },
  {
    "pincode": "530003",
    "state": "Andhra Pradesh",
    "district": "Visakhapatnam",
    "taluka": "Visakhapatnam"
  },
  {
    "pincode": "530004",
    "state": "Andhra Pradesh",
    "district": "Visakhapatnam",
    "taluka": "Visakhapatnam"
  },
  {
    "pincode": "530005",
    "state": "Andhra Pradesh",
    "district": "Visakhapatnam",
    "taluka": "Visakhapatnam"
  },
  {
    "pincode": "530006",
    "state": "Andhra Pradesh",
    "district": "Visakhapatnam",
    "taluka": "Visakhapatnam"
  },
  {
    "pincode": "530007",
    "state": "Andhra Pradesh",
    "district": "Visakhapatnam",
    "taluka": "Visakhapatnam"
  },
  {
    "pincode": "530008",
    "state": "Andhra Pradesh",
    "district": "Visakhapatnam",
    "taluka": "Visakhapatnam"
  },
  {
    "pincode": "530009",
    "state": "Andhra Pradesh",
    "district": "Visakhapatnam",
    "taluka": "Visakhapatnam"
  },
  {
    "pincode": "530010",
    "state": "Andhra Pradesh",
    "district": "Visakhapatnam",
    "taluka": "Visakhapatnam"
  },
  {
    "pincode": "530011",
    "state": "Andhra Pradesh",
    "district": "Visakhapatnam",
    "taluka": "Visakhapatnam"
  },
  {
    "pincode": "530012",
    "state": "Andhra Pradesh",
    "district": "Visakhapatnam",
    "taluka": "Visakhapatnam"
  },
  {
    "pincode": "530013",
    "state": "Andhra Pradesh",
    "district": "Visakhapatnam",
    "taluka": "Visakhapatnam"
  },
  {
    "pincode": "530014",
    "state": "Andhra Pradesh",
    "district": "Visakhapatnam",
    "taluka": "Visakhapatnam"
  },
  {
    "pincode": "530015",
    "state": "Andhra Pradesh",
    "district": "Visakhapatnam",
    "taluka": "Visakhapatnam"
  },
  {
    "pincode": "530016",
    "state": "Andhra Pradesh",
    "district": "Visakhapatnam",
    "taluka": "Visakhapatnam"
  },
  {
    "pincode": "530017",
    "state": "Andhra Pradesh",
    "district": "Visakhapatnam",
    "taluka": "Visakhapatnam"
  },
  {
    "pincode": "530018",
    "state": "Andhra Pradesh",
    "district": "Visakhapatnam",
    "taluka": "Visakhapatnam"
  },
  {
    "pincode": "530019",
    "state": "Andhra Pradesh",
    "district": "Visakhapatnam",
    "taluka": "Visakhapatnam"
  },
  {
    "pincode": "530020",
    "state": "Andhra Pradesh",
    "district": "Visakhapatnam",
    "taluka": "Visakhapatnam"
  },
  {
    "pincode": "530021",
    "state": "Andhra Pradesh",
    "district": "Visakhapatnam",
    "taluka": "Visakhapatnam"
  },
  {
    "pincode": "530022",
    "state": "Andhra Pradesh",
    "district": "Visakhapatnam",
    "taluka": "Visakhapatnam"
  },
  {
    "pincode": "530023",
    "state": "Andhra Pradesh",
    "district": "Visakhapatnam",
    "taluka": "Visakhapatnam"
  },
  {
    "pincode": "530024",
    "state": "Andhra Pradesh",
    "district": "Visakhapatnam",
    "taluka": "Visakhapatnam"
  },
  {
    "pincode": "530025",
    "state": "Andhra Pradesh",
    "district": "Visakhapatnam",
    "taluka": "Visakhapatnam"
  },
  {
    "pincode": "530026",
    "state": "Andhra Pradesh",
    "district": "Visakhapatnam",
    "taluka": "Visakhapatnam"
  },
  {
    "pincode": "530027",
    "state": "Andhra Pradesh",
    "district": "Visakhapatnam",
    "taluka": "Visakhapatnam"
  },
  {
    "pincode": "530028",
    "state": "Andhra Pradesh",
    "district": "Visakhapatnam",
    "taluka": "Visakhapatnam"
  },
  {
    "pincode": "530029",
    "state": "Andhra Pradesh",
    "district": "Visakhapatnam",
    "taluka": "Visakhapatnam"
  },
  {
    "pincode": "530030",
    "state": "Andhra Pradesh",
    "district": "Visakhapatnam",
    "taluka": "Visakhapatnam"
  },
  {
    "pincode": "530031",
    "state": "Andhra Pradesh",
    "district": "Visakhapatnam",
    "taluka": "Visakhapatnam"
  },
  {
    "pincode": "530032",
    "state": "Andhra Pradesh",
    "district": "Visakhapatnam",
    "taluka": "Visakhapatnam"
  },
  {
    "pincode": "530033",
    "state": "Andhra Pradesh",
    "district": "Visakhapatnam",
    "taluka": "Visakhapatnam"
  },
  {
    "pincode": "530034",
    "state": "Andhra Pradesh",
    "district": "Visakhapatnam",
    "taluka": "Visakhapatnam"
  },
  {
    "pincode": "530035",
    "state": "Andhra Pradesh",
    "district": "Visakhapatnam",
    "taluka": "Visakhapatnam"
  },
  {
    "pincode": "530036",
    "state": "Andhra Pradesh",
    "district": "Visakhapatnam",
    "taluka": "Visakhapatnam"
  },
  {
    "pincode": "530037",
    "state": "Andhra Pradesh",
    "district": "Visakhapatnam",
    "taluka": "Visakhapatnam"
  },
  {
    "pincode": "530038",
    "state": "Andhra Pradesh",
    "district": "Visakhapatnam",
    "taluka": "Visakhapatnam"
  },
  {
    "pincode": "530039",
    "state": "Andhra Pradesh",
    "district": "Visakhapatnam",
    "taluka": "Visakhapatnam"
  },
  {
    "pincode": "530040",
    "state": "Andhra Pradesh",
    "district": "Visakhapatnam",
    "taluka": "Visakhapatnam"
  },
  {
    "pincode": "530041",
    "state": "Andhra Pradesh",
    "district": "Visakhapatnam",
    "taluka": "Visakhapatnam"
  },
  {
    "pincode": "530042",
    "state": "Andhra Pradesh",
    "district": "Visakhapatnam",
    "taluka": "Visakhapatnam"
  },
  {
    "pincode": "530043",
    "state": "Andhra Pradesh",
    "district": "Visakhapatnam",
    "taluka": "Visakhapatnam"
  },
  {
    "pincode": "530044",
    "state": "Andhra Pradesh",
    "district": "Visakhapatnam",
    "taluka": "Visakhapatnam"
  },
  {
    "pincode": "530045",
    "state": "Andhra Pradesh",
    "district": "Visakhapatnam",
    "taluka": "Visakhapatnam"
  },
  {
    "pincode": "530046",
    "state": "Andhra Pradesh",
    "district": "Visakhapatnam",
    "taluka": "Visakhapatnam"
  },
  {
    "pincode": "530047",
    "state": "Andhra Pradesh",
    "district": "Visakhapatnam",
    "taluka": "Visakhapatnam"
  },
  {
    "pincode": "530048",
    "state": "Andhra Pradesh",
    "district": "Visakhapatnam",
    "taluka": "Visakhapatnam"
  },
  {
    "pincode": "530049",
    "state": "Andhra Pradesh",
    "district": "Visakhapatnam",
    "taluka": "Visakhapatnam"
  },
  {
    "pincode": "530050",
    "state": "Andhra Pradesh",
    "district": "Visakhapatnam",
    "taluka": "Visakhapatnam"
  }
,
  {
    "pincode": "521235",
    "state": "Andhra Pradesh",
    "district": "Krishna",
    "taluka": "Tiruvuru"
  }
]
