[
  {
    "pincode": "500001",
    "city": "Hyderabad",
    "state": "Telangana",
    "district": "Hyderabad",
    "area": "Abids"
  },
  {
    "pincode": "500002",
    "city": "Hyderabad",
    "state": "Telangana",
    "district": "Hyderabad",
    "area": "Charminar"
  },
  {
    "pincode": "500003",
    "city": "Hyderabad",
    "state": "Telangana",
    "district": "Hyderabad",
    "area": "Secunderabad"
  },
  {
    "pincode": "500004",
    "city": "Hyderabad",
    "state": "Telangana",
    "district": "Hyderabad",
    "area": "Begumpet"
  },
  {
    "pincode": "500005",
    "city": "Hyderabad",
    "state": "Telangana",
    "district": "Hyderabad",
    "area": "Banjara Hills"
  },
  {
    "pincode": "500006",
    "city": "Hyderabad",
    "state": "Telangana",
    "district": "Hyderabad",
    "area": "Jubilee Hills"
  },
  {
    "pincode": "500007",
    "city": "Hyderabad",
    "state": "Telangana",
    "district": "Hyderabad",
    "area": "HITEC City"
  },
  {
    "pincode": "500008",
    "city": "Hyderabad",
    "state": "Telangana",
    "district": "Hyderabad",
    "area": "Gachibowli"
  },
  {
    "pincode": "500009",
    "city": "Hyderabad",
    "state": "Telangana",
    "district": "Hyderabad",
    "area": "Kondapur"
  },
  {
    "pincode": "500010",
    "city": "Hyderabad",
    "state": "Telangana",
    "district": "Hyderabad",
    "area": "Madhapur"
  },
  {
    "pincode": "500011",
    "city": "Hyderabad",
    "state": "Telangana",
    "district": "Hyderabad",
    "area": "Kukatpally"
  },
  {
    "pincode": "500012",
    "city": "Hyderabad",
    "state": "Telangana",
    "district": "Hyderabad",
    "area": "Miyapur"
  },
  {
    "pincode": "500013",
    "city": "Hyderabad",
    "state": "Telangana",
    "district": "Hyderabad",
    "area": "Bachupally"
  },
  {
    "pincode": "500014",
    "city": "Hyderabad",
    "state": "Telangana",
    "district": "Hyderabad",
    "area": "Nizampet"
  },
  {
    "pincode": "500015",
    "city": "Hyderabad",
    "state": "Telangana",
    "district": "Hyderabad",
    "area": "Patancheru"
  },
  {
    "pincode": "500016",
    "city": "Hyderabad",
    "state": "Telangana",
    "district": "Hyderabad",
    "area": "Shamshabad"
  },
  {
    "pincode": "500017",
    "city": "Hyderabad",
    "state": "Telangana",
    "district": "Hyderabad",
    "area": "Rajendranagar"
  },
  {
    "pincode": "500018",
    "city": "Hyderabad",
    "state": "Telangana",
    "district": "Hyderabad",
    "area": "Mehdipatnam"
  },
  {
    "pincode": "500019",
    "city": "Hyderabad",
    "state": "Telangana",
    "district": "Hyderabad",
    "area": "Tolichowki"
  },
  {
    "pincode": "500020",
    "city": "Hyderabad",
    "state": "Telangana",
    "district": "Hyderabad",
    "area": "Malakpet"
  },
  {
    "pincode": "500021",
    "city": "Hyderabad",
    "state": "Telangana",
    "district": "Hyderabad",
    "area": "Nampally"
  },
  {
    "pincode": "500022",
    "city": "Hyderabad",
    "state": "Telangana",
    "district": "Hyderabad",
    "area": "Koti"
  },
  {
    "pincode": "500023",
    "city": "Hyderabad",
    "state": "Telangana",
    "district": "Hyderabad",
    "area": "Sultan Bazar"
  },
  {
    "pincode": "500024",
    "city": "Hyderabad",
    "state": "Telangana",
    "district": "Hyderabad",
    "area": "Basheerbagh"
  },
  {
    "pincode": "500025",
    "city": "Hyderabad",
    "state": "Telangana",
    "district": "Hyderabad",
    "area": "Narayanguda"
  },
  {
    "pincode": "500026",
    "city": "Hyderabad",
    "state": "Telangana",
    "district": "Hyderabad",
    "area": "Chikkadpally"
  },
  {
    "pincode": "500027",
    "city": "Hyderabad",
    "state": "Telangana",
    "district": "Hyderabad",
    "area": "Tarnaka"
  },
  {
    "pincode": "500028",
    "city": "Hyderabad",
    "state": "Telangana",
    "district": "Hyderabad",
    "area": "Uppal"
  },
  {
    "pincode": "500029",
    "city": "Hyderabad",
    "state": "Telangana",
    "district": "Hyderabad",
    "area": "Lalapet"
  },
  {
    "pincode": "500030",
    "city": "Hyderabad",
    "state": "Telangana",
    "district": "Hyderabad",
    "area": "Malkajgiri"
  },
  {
    "pincode": "500031",
    "city": "Hyderabad",
    "state": "Telangana",
    "district": "Hyderabad",
    "area": "Alwal"
  },
  {
    "pincode": "500032",
    "city": "Hyderabad",
    "state": "Telangana",
    "district": "Hyderabad",
    "area": "Secunderabad"
  },
  {
    "pincode": "500033",
    "city": "Hyderabad",
    "state": "Telangana",
    "district": "Hyderabad",
    "area": "Bowenpally"
  },
  {
    "pincode": "500034",
    "city": "Hyderabad",
    "state": "Telangana",
    "district": "Hyderabad",
    "area": "Trimulgherry"
  },
  {
    "pincode": "500035",
    "city": "Hyderabad",
    "state": "Telangana",
    "district": "Hyderabad",
    "area": "Bolarum"
  },
  {
    "pincode": "500036",
    "city": "Hyderabad",
    "state": "Telangana",
    "district": "Hyderabad",
    "area": "Paradise"
  },
  {
    "pincode": "500037",
    "city": "Hyderabad",
    "state": "Telangana",
    "district": "Hyderabad",
    "area": "Musheerabad"
  },
  {
    "pincode": "500038",
    "city": "Hyderabad",
    "state": "Telangana",
    "district": "Hyderabad",
    "area": "RTC Cross Roads"
  },
  {
    "pincode": "500039",
    "city": "Hyderabad",
    "state": "Telangana",
    "district": "Hyderabad",
    "area": "Karkhana"
  },
  {
    "pincode": "500040",
    "city": "Hyderabad",
    "state": "Telangana",
    "district": "Hyderabad",
    "area": "Sitaphalmandi"
  },
  {
    "pincode": "500041",
    "city": "Hyderabad",
    "state": "Telangana",
    "district": "Hyderabad",
    "area": "Banjara Hills"
  },
  {
    "pincode": "500042",
    "city": "Hyderabad",
    "state": "Telangana",
    "district": "Hyderabad",
    "area": "Jubilee Hills"
  },
  {
    "pincode": "500043",
    "city": "Hyderabad",
    "state": "Telangana",
    "district": "Hyderabad",
    "area": "Banjara Hills"
  },
  {
    "pincode": "500044",
    "city": "Hyderabad",
    "state": "Telangana",
    "district": "Hyderabad",
    "area": "Jubilee Hills"
  },
  {
    "pincode": "500045",
    "city": "Hyderabad",
    "state": "Telangana",
    "district": "Hyderabad",
    "area": "Banjara Hills"
  },
  {
    "pincode": "500046",
    "city": "Hyderabad",
    "state": "Telangana",
    "district": "Hyderabad",
    "area": "Jubilee Hills"
  },
  {
    "pincode": "500047",
    "city": "Hyderabad",
    "state": "Telangana",
    "district": "Hyderabad",
    "area": "Banjara Hills"
  },
  {
    "pincode": "500048",
    "city": "Hyderabad",
    "state": "Telangana",
    "district": "Hyderabad",
    "area": "Jubilee Hills"
  },
  {
    "pincode": "500049",
    "city": "Hyderabad",
    "state": "Telangana",
    "district": "Hyderabad",
    "area": "Banjara Hills"
  },
  {
    "pincode": "500050",
    "city": "Hyderabad",
    "state": "Telangana",
    "district": "Hyderabad",
    "area": "Jubilee Hills"
  },
  {
    "pincode": "500051",
    "city": "Hyderabad",
    "state": "Telangana",
    "district": "Hyderabad",
    "area": "Banjara Hills"
  },
  {
    "pincode": "500052",
    "city": "Hyderabad",
    "state": "Telangana",
    "district": "Hyderabad",
    "area": "Jubilee Hills"
  },
  {
    "pincode": "500053",
    "city": "Hyderabad",
    "state": "Telangana",
    "district": "Hyderabad",
    "area": "Banjara Hills"
  },
  {
    "pincode": "500054",
    "city": "Hyderabad",
    "state": "Telangana",
    "district": "Hyderabad",
    "area": "Jubilee Hills"
  },
  {
    "pincode": "500055",
    "city": "Hyderabad",
    "state": "Telangana",
    "district": "Hyderabad",
    "area": "Banjara Hills"
  },
  {
    "pincode": "500056",
    "city": "Hyderabad",
    "state": "Telangana",
    "district": "Hyderabad",
    "area": "Jubilee Hills"
  },
  {
    "pincode": "500057",
    "city": "Hyderabad",
    "state": "Telangana",
    "district": "Hyderabad",
    "area": "Banjara Hills"
  },
  {
    "pincode": "500058",
    "city": "Hyderabad",
    "state": "Telangana",
    "district": "Hyderabad",
    "area": "Jubilee Hills"
  },
  {
    "pincode": "500059",
    "city": "Hyderabad",
    "state": "Telangana",
    "district": "Hyderabad",
    "area": "Banjara Hills"
  },
  {
    "pincode": "500060",
    "city": "Hyderabad",
    "state": "Telangana",
    "district": "Hyderabad",
    "area": "Jubilee Hills"
  },
  {
    "pincode": "500061",
    "city": "Hyderabad",
    "state": "Telangana",
    "district": "Hyderabad",
    "area": "Banjara Hills"
  },
  {
    "pincode": "500062",
    "city": "Hyderabad",
    "state": "Telangana",
    "district": "Hyderabad",
    "area": "Jubilee Hills"
  },
  {
    "pincode": "500063",
    "city": "Hyderabad",
    "state": "Telangana",
    "district": "Hyderabad",
    "area": "Banjara Hills"
  },
  {
    "pincode": "500064",
    "city": "Hyderabad",
    "state": "Telangana",
    "district": "Hyderabad",
    "area": "Jubilee Hills"
  },
  {
    "pincode": "500065",
    "city": "Hyderabad",
    "state": "Telangana",
    "district": "Hyderabad",
    "area": "Banjara Hills"
  },
  {
    "pincode": "500066",
    "city": "Hyderabad",
    "state": "Telangana",
    "district": "Hyderabad",
    "area": "Jubilee Hills"
  },
  {
    "pincode": "500067",
    "city": "Hyderabad",
    "state": "Telangana",
    "district": "Hyderabad",
    "area": "Banjara Hills"
  },
  {
    "pincode": "500068",
    "city": "Hyderabad",
    "state": "Telangana",
    "district": "Hyderabad",
    "area": "Jubilee Hills"
  },
  {
    "pincode": "500069",
    "city": "Hyderabad",
    "state": "Telangana",
    "district": "Hyderabad",
    "area": "Banjara Hills"
  },
  {
    "pincode": "500070",
    "city": "Hyderabad",
    "state": "Telangana",
    "district": "Hyderabad",
    "area": "Jubilee Hills"
  },
  {
    "pincode": "500071",
    "city": "Hyderabad",
    "state": "Telangana",
    "district": "Hyderabad",
    "area": "Banjara Hills"
  },
  {
    "pincode": "500072",
    "city": "Hyderabad",
    "state": "Telangana",
    "district": "Hyderabad",
    "area": "Jubilee Hills"
  },
  {
    "pincode": "500073",
    "city": "Hyderabad",
    "state": "Telangana",
    "district": "Hyderabad",
    "area": "Banjara Hills"
  },
  {
    "pincode": "500074",
    "city": "Hyderabad",
    "state": "Telangana",
    "district": "Hyderabad",
    "area": "Jubilee Hills"
  },
  {
    "pincode": "500075",
    "city": "Hyderabad",
    "state": "Telangana",
    "district": "Hyderabad",
    "area": "Banjara Hills"
  },
  {
    "pincode": "500076",
    "city": "Hyderabad",
    "state": "Telangana",
    "district": "Hyderabad",
    "area": "Jubilee Hills"
  },
  {
    "pincode": "500077",
    "city": "Hyderabad",
    "state": "Telangana",
    "district": "Hyderabad",
    "area": "Banjara Hills"
  },
  {
    "pincode": "500078",
    "city": "Hyderabad",
    "state": "Telangana",
    "district": "Hyderabad",
    "area": "Jubilee Hills"
  },
  {
    "pincode": "500079",
    "city": "Hyderabad",
    "state": "Telangana",
    "district": "Hyderabad",
    "area": "Banjara Hills"
  },
  {
    "pincode": "500080",
    "city": "Hyderabad",
    "state": "Telangana",
    "district": "Hyderabad",
    "area": "Jubilee Hills"
  },
  {
    "pincode": "500081",
    "city": "Hyderabad",
    "state": "Telangana",
    "district": "Hyderabad",
    "area": "Banjara Hills"
  },
  {
    "pincode": "500082",
    "city": "Hyderabad",
    "state": "Telangana",
    "district": "Hyderabad",
    "area": "Jubilee Hills"
  },
  {
    "pincode": "500083",
    "city": "Hyderabad",
    "state": "Telangana",
    "district": "Hyderabad",
    "area": "Banjara Hills"
  },
  {
    "pincode": "500084",
    "city": "Hyderabad",
    "state": "Telangana",
    "district": "Hyderabad",
    "area": "Jubilee Hills"
  },
  {
    "pincode": "500085",
    "city": "Hyderabad",
    "state": "Telangana",
    "district": "Hyderabad",
    "area": "Banjara Hills"
  },
  {
    "pincode": "500086",
    "city": "Hyderabad",
    "state": "Telangana",
    "district": "Hyderabad",
    "area": "Jubilee Hills"
  },
  {
    "pincode": "500087",
    "city": "Hyderabad",
    "state": "Telangana",
    "district": "Hyderabad",
    "area": "Banjara Hills"
  },
  {
    "pincode": "500088",
    "city": "Hyderabad",
    "state": "Telangana",
    "district": "Hyderabad",
    "area": "Jubilee Hills"
  },
  {
    "pincode": "500089",
    "city": "Hyderabad",
    "state": "Telangana",
    "district": "Hyderabad",
    "area": "Banjara Hills"
  },
  {
    "pincode": "500090",
    "city": "Hyderabad",
    "state": "Telangana",
    "district": "Hyderabad",
    "area": "Jubilee Hills"
  },
  {
    "pincode": "500091",
    "city": "Hyderabad",
    "state": "Telangana",
    "district": "Hyderabad",
    "area": "Banjara Hills"
  },
  {
    "pincode": "500092",
    "city": "Hyderabad",
    "state": "Telangana",
    "district": "Hyderabad",
    "area": "Jubilee Hills"
  },
  {
    "pincode": "500093",
    "city": "Hyderabad",
    "state": "Telangana",
    "district": "Hyderabad",
    "area": "Banjara Hills"
  },
  {
    "pincode": "500094",
    "city": "Hyderabad",
    "state": "Telangana",
    "district": "Hyderabad",
    "area": "Jubilee Hills"
  },
  {
    "pincode": "500095",
    "city": "Hyderabad",
    "state": "Telangana",
    "district": "Hyderabad",
    "area": "Banjara Hills"
  },
  {
    "pincode": "500096",
    "city": "Hyderabad",
    "state": "Telangana",
    "district": "Hyderabad",
    "area": "Jubilee Hills"
  },
  {
    "pincode": "500097",
    "city": "Hyderabad",
    "state": "Telangana",
    "district": "Hyderabad",
    "area": "Banjara Hills"
  },
  {
    "pincode": "500098",
    "city": "Hyderabad",
    "state": "Telangana",
    "district": "Hyderabad",
    "area": "Jubilee Hills"
  },
  {
    "pincode": "500099",
    "city": "Hyderabad",
    "state": "Telangana",
    "district": "Hyderabad",
    "area": "Banjara Hills"
  },
  {
    "pincode": "500100",
    "city": "Hyderabad",
    "state": "Telangana",
    "district": "Hyderabad",
    "area": "Jubilee Hills"
  }
]
